[{"OBJECT_NAME":"IRIDIUM 173","OBJECT_ID":"2019-002D","EPOCH":"2026-04-05T06:41:10.851648","MEAN_MOTION":14.34218323,"ECCENTRICITY":0.00021057,"INCLINATION":86.4016,"RA_OF_ASC_NODE":24.0248,"ARG_OF_PERICENTER":86.8196,"MEAN_ANOMALY":273.3241,"EPHEMERIS_TYPE":0,"CLASSIFICATION_TYPE":"U","NORAD_CAT_ID":43925,"ELEMENT_SET_NO":999,"REV_AT_EPOCH":37850,"BSTAR":4.4707063e-5,"MEAN_MOTION_DOT":1.45e-6,"MEAN_MOTION_DDOT":0},{"OBJECT_NAME":"IRIDIUM 169","OBJECT_ID":"2019-002E","EPOCH":"2026-04-05T06:55:03.858240","MEAN_MOTION":14.38609959,"ECCENTRICITY":0.00021428,"INCLINATION":86.4214,"RA_OF_ASC_NODE":55.6573,"ARG_OF_PERICENTER":104.9544,"MEAN_ANOMALY":255.1891,"EPHEMERIS_TYPE":0,"CLASSIFICATION_TYPE":"U","NORAD_CAT_ID":43926,"ELEMENT_SET_NO":999,"REV_AT_EPOCH":37974,"BSTAR":0.00015988028,"MEAN_MOTION_DOT":5.09e-6,"MEAN_MOTION_DDOT":0},{"OBJECT_NAME":"IRIDIUM 172","OBJECT_ID":"2019-002F","EPOCH":"2026-04-04T20:29:14.856288","MEAN_MOTION":14.34218508,"ECCENTRICITY":0.00021438,"INCLINATION":86.4012,"RA_OF_ASC_NODE":24.2099,"ARG_OF_PERICENTER":81.7817,"MEAN_ANOMALY":278.3621,"EPHEMERIS_TYPE":0,"CLASSIFICATION_TYPE":"U","NORAD_CAT_ID":43927,"ELEMENT_SET_NO":999,"REV_AT_EPOCH":37845,"BSTAR":4.2112936e-5,"MEAN_MOTION_DOT":1.38e-6,"MEAN_MOTION_DDOT":0},{"OBJECT_NAME":"IRIDIUM 175","OBJECT_ID":"2019-002G","EPOCH":"2026-04-05T03:32:50.460000","MEAN_MOTION":14.43583824,"ECCENTRICITY":0.00052965,"INCLINATION":86.4515,"RA_OF_ASC_NODE":321.0725,"ARG_OF_PERICENTER":98.1135,"MEAN_ANOMALY":262.0668,"EPHEMERIS_TYPE":0,"CLASSIFICATION_TYPE":"U","NORAD_CAT_ID":43928,"ELEMENT_SET_NO":999,"REV_AT_EPOCH":38844,"BSTAR":0.00013708836,"MEAN_MOTION_DOT":4.84e-6,"MEAN_MOTION_DDOT":0},{"OBJECT_NAME":"IRIDIUM 171","OBJECT_ID":"2019-002H","EPOCH":"2026-04-05T04:24:10.693440","MEAN_MOTION":14.34217744,"ECCENTRICITY":0.00023332,"INCLINATION":86.4024,"RA_OF_ASC_NODE":24.3704,"ARG_OF_PERICENTER":88.3763,"MEAN_ANOMALY":271.77,"EPHEMERIS_TYPE":0,"CLASSIFICATION_TYPE":"U","NORAD_CAT_ID":43929,"ELEMENT_SET_NO":999,"REV_AT_EPOCH":37849,"BSTAR":0.00010436181,"MEAN_MOTION_DOT":3.12e-6,"MEAN_MOTION_DDOT":0},{"OBJECT_NAME":"IRIDIUM 170","OBJECT_ID":"2019-002J","EPOCH":"2026-04-05T05:39:36.095616","MEAN_MOTION":14.72255983,"ECCENTRICITY":0.00023636,"INCLINATION":86.6134,"RA_OF_ASC_NODE":24.032,"ARG_OF_PERICENTER":81.4808,"MEAN_ANOMALY":278.6677,"EPHEMERIS_TYPE":0,"CLASSIFICATION_TYPE":"U","NORAD_CAT_ID":43930,"ELEMENT_SET_NO":999,"REV_AT_EPOCH":38852,"BSTAR":0.00024302659,"MEAN_MOTION_DOT":1.557e-5,"MEAN_MOTION_DDOT":0},{"OBJECT_NAME":"IRIDIUM 167","OBJECT_ID":"2019-002K","EPOCH":"2026-04-05T04:15:02.955456","MEAN_MOTION":14.34216955,"ECCENTRICITY":0.00024358,"INCLINATION":86.4015,"RA_OF_ASC_NODE":24.0966,"ARG_OF_PERICENTER":92.1636,"MEAN_ANOMALY":267.9839,"EPHEMERIS_TYPE":0,"CLASSIFICATION_TYPE":"U","NORAD_CAT_ID":43931,"ELEMENT_SET_NO":999,"REV_AT_EPOCH":37849,"BSTAR":0.00014774249,"MEAN_MOTION_DOT":4.34e-6,"MEAN_MOTION_DDOT":0},{"OBJECT_NAME":"IRIDIUM 181","OBJECT_ID":"2023-068S","EPOCH":"2026-04-04T11:29:14.305056","MEAN_MOTION":14.43312266,"ECCENTRICITY":0.00024709,"INCLINATION":86.4449,"RA_OF_ASC_NODE":87.606,"ARG_OF_PERICENTER":82.4473,"MEAN_ANOMALY":277.7008,"EPHEMERIS_TYPE":0,"CLASSIFICATION_TYPE":"U","NORAD_CAT_ID":56726,"ELEMENT_SET_NO":999,"REV_AT_EPOCH":15180,"BSTAR":6.7560962e-5,"MEAN_MOTION_DOT":2.48e-6,"MEAN_MOTION_DDOT":0},{"OBJECT_NAME":"IRIDIUM 177","OBJECT_ID":"2023-068T","EPOCH":"2026-04-05T04:15:49.962240","MEAN_MOTION":14.80238091,"ECCENTRICITY":0.00021952,"INCLINATION":86.202,"RA_OF_ASC_NODE":3.4587,"ARG_OF_PERICENTER":89.0647,"MEAN_ANOMALY":271.0826,"EPHEMERIS_TYPE":0,"CLASSIFICATION_TYPE":"U","NORAD_CAT_ID":56727,"ELEMENT_SET_NO":999,"REV_AT_EPOCH":15556,"BSTAR":0.00018025768,"MEAN_MOTION_DOT":1.396e-5,"MEAN_MOTION_DDOT":0},{"OBJECT_NAME":"IRIDIUM 174","OBJECT_ID":"2023-068U","EPOCH":"2026-04-05T06:59:41.068320","MEAN_MOTION":14.72245084,"ECCENTRICITY":0.00021864,"INCLINATION":86.6142,"RA_OF_ASC_NODE":24.1488,"ARG_OF_PERICENTER":81.2112,"MEAN_ANOMALY":278.9353,"EPHEMERIS_TYPE":0,"CLASSIFICATION_TYPE":"U","NORAD_CAT_ID":56728,"ELEMENT_SET_NO":999,"REV_AT_EPOCH":15529,"BSTAR":0.00025444515,"MEAN_MOTION_DOT":1.629e-5,"MEAN_MOTION_DDOT":0},{"OBJECT_NAME":"IRIDIUM 178","OBJECT_ID":"2023-068V","EPOCH":"2026-04-05T04:00:06.990048","MEAN_MOTION":14.80232792,"ECCENTRICITY":0.00027407,"INCLINATION":86.6528,"RA_OF_ASC_NODE":55.8631,"ARG_OF_PERICENTER":85.1592,"MEAN_ANOMALY":274.9942,"EPHEMERIS_TYPE":0,"CLASSIFICATION_TYPE":"U","NORAD_CAT_ID":56729,"ELEMENT_SET_NO":999,"REV_AT_EPOCH":15556,"BSTAR":0.0001176687,"MEAN_MOTION_DOT":9.2e-6,"MEAN_MOTION_DDOT":0},{"OBJECT_NAME":"IRIDIUM 179","OBJECT_ID":"2023-068W","EPOCH":"2026-04-05T05:29:43.166112","MEAN_MOTION":14.80241091,"ECCENTRICITY":0.000284,"INCLINATION":86.6756,"RA_OF_ASC_NODE":64.6042,"ARG_OF_PERICENTER":95.4651,"MEAN_ANOMALY":264.6894,"EPHEMERIS_TYPE":0,"CLASSIFICATION_TYPE":"U","NORAD_CAT_ID":56730,"ELEMENT_SET_NO":999,"REV_AT_EPOCH":15557,"BSTAR":0.00026401167,"MEAN_MOTION_DOT":2.033e-5,"MEAN_MOTION_DDOT":0}]
