IRIDIUM 173             
1 43925U 19002D   26095.27859782  .00000145  00000+0  44707-4 0  9990
2 43925  86.4016  24.0248 0002105  86.8196 273.3241 14.34218323378502
IRIDIUM 169             
1 43926U 19002E   26095.28823910  .00000509  00000+0  15988-3 0  9998
2 43926  86.4214  55.6573 0002142 104.9544 255.1891 14.38609959379743
IRIDIUM 172             
1 43927U 19002F   26094.85364417  .00000138  00000+0  42113-4 0  9992
2 43927  86.4012  24.2099 0002143  81.7817 278.3621 14.34218508378458
IRIDIUM 175             
1 43928U 19002G   26095.14780625  .00000484  00000+0  13709-3 0  9991
2 43928  86.4515 321.0725 0005296  98.1135 262.0668 14.43583824388445
IRIDIUM 171             
1 43929U 19002H   26095.18345710  .00000312  00000+0  10436-3 0  9992
2 43929  86.4024  24.3704 0002333  88.3763 271.7700 14.34217744378491
IRIDIUM 170             
1 43930U 19002J   26095.23583444  .00001557  00000+0  24303-3 0  9998
2 43930  86.6134  24.0320 0002363  81.4808 278.6677 14.72255983388528
IRIDIUM 167             
1 43931U 19002K   26095.17711754  .00000434  00000+0  14774-3 0  9993
2 43931  86.4015  24.0966 0002435  92.1636 267.9839 14.34216955378499
IRIDIUM 181             
1 56726U 23068S   26094.47863779  .00000248  00000+0  67561-4 0  9999
2 56726  86.4449  87.6060 0002470  82.4473 277.7008 14.43312266151809
IRIDIUM 177             
1 56727U 23068T   26095.17766160  .00001396  00000+0  18026-3 0  9990
2 56727  86.2020   3.4587 0002195  89.0647 271.0826 14.80238091155569
IRIDIUM 174             
1 56728U 23068U   26095.29144755  .00001629  00000+0  25445-3 0  9996
2 56728  86.6142  24.1488 0002186  81.2112 278.9353 14.72245084155292
IRIDIUM 178             
1 56729U 23068V   26095.16674757  .00000920  00000+0  11767-3 0  9998
2 56729  86.6528  55.8631 0002740  85.1592 274.9942 14.80232792155564
IRIDIUM 179             
1 56730U 23068W   26095.22897183  .00002033  00000+0  26401-3 0  9995
2 56730  86.6756  64.6042 0002840  95.4651 264.6894 14.80241091155579
